ONEWEB-0429             
1 50500U 21132AH  26041.92840570 -.00000320  00000+0 -84323-3 0  9996
2 50500  87.9225   0.5286 0001760  84.7163 275.4170 13.18685305204944
ONEWEB-0430             
1 50501U 21132AJ  26041.84100150  .00000042  00000+0  74806-4 0  9996
2 50501  87.9223   0.5427 0001901  87.8734 272.2616 13.18687471204974
ONEWEB-0432             
1 50502U 21132AK  26041.34218444  .00000075  00000+0  15670-3 0  9997
2 50502  87.9222   0.6104 0002581  85.6417 274.5010 13.18642187204862
ONEWEB-0440             
1 50503U 21132AL  26041.93665821  .00000049  00000+0  91873-4 0  9999
2 50503  87.9225   0.5131 0001485  76.2663 283.8634 13.18687929204932
ONEWEB-0450             
1 50504U 21132AM  26041.93019248 -.00000321  00000+0 -84800-3 0  9992
2 50504  87.9218   0.5327 0001690  92.3724 267.7602 13.18685088204960
ONEWEB-0410             
1 51622U 22012A   26041.93543569  .00000017  00000+0  96515-5 0  9998
2 51622  87.9112  30.9253 0002954  65.8343 294.3097 13.17650791197075
ONEWEB-0411             
1 51623U 22012B   26042.02313067  .00000256  00000+0  69685-3 0  9999
2 51623  87.8749  61.4004 0002110 107.6642 252.4716 13.10376503192768
ONEWEB-0415             
1 51624U 22012C   26042.01980319  .00000107  00000+0  27073-3 0  9999
2 51624  87.8754  61.4041 0002024 100.4302 259.7054 13.10376446192765
ONEWEB-0416             
1 51625U 22012D   26042.03143321  .00000677  00000+0  19023-2 0  9993
2 51625  87.8754  61.4219 0002307  96.5814 263.5576 13.10375161192800
ONEWEB-0422             
1 51626U 22012E   26041.94554176  .00000015  00000+0  42634-5 0  9990
2 51626  87.9114  30.9259 0001209  96.4074 263.7195 13.17651198197183
ONEWEB-0423             
1 51627U 22012F   26041.93880123  .00000041  00000+0  72705-4 0  9994
2 51627  87.9113  30.9370 0001781  84.9271 275.2063 13.17648638197078
ONEWEB-0425             
1 51628U 22012G   26042.04139776  .00000714  00000+0  20101-2 0  9997
2 51628  87.8759  61.3955 0002017  82.7479 277.3877 13.10371952192807
ONEWEB-0428             
1 51629U 22012H   26041.56332261  .00000246  00000+0  66757-3 0  9996
2 51629  87.8756  61.5065 0001835  92.6273 267.5064 13.10375719192701
ONEWEB-0431             
1 51630U 22012J   26041.60965306 -.00000461  00000+0 -13562-2 0  9991
2 51630  87.8755  61.4810 0001960 112.7577 247.3758 13.10369283192760
ONEWEB-0434             
1 51631U 22012K   26041.51035217  .00000496  00000+0  13834-2 0  9999
2 51631  87.8746  61.5319 0002126  76.2720 283.8644 13.10369502192735
ONEWEB-0435             
1 51632U 22012L   26041.97664978  .00000151  00000+0  39759-3 0  9995
2 51632  87.8747  61.4284 0001476  97.0904 263.0392 13.10369179192784
ONEWEB-0436             
1 51633U 22012M   26041.93036434  .00000037  00000+0  62167-4 0  9995
2 51633  87.9112  30.9169 0001713  92.3973 267.7355 13.17648595197057
