[{"OBJECT_NAME":"ONEWEB-0429","OBJECT_ID":"2021-132AH","EPOCH":"2026-02-10T22:16:54.252480","MEAN_MOTION":13.18685305,"ECCENTRICITY":0.00017602,"INCLINATION":87.9225,"RA_OF_ASC_NODE":0.5286,"ARG_OF_PERICENTER":84.7163,"MEAN_ANOMALY":275.417,"EPHEMERIS_TYPE":0,"CLASSIFICATION_TYPE":"U","NORAD_CAT_ID":50500,"ELEMENT_SET_NO":999,"REV_AT_EPOCH":20494,"BSTAR":-0.00084323114,"MEAN_MOTION_DOT":-3.2e-6,"MEAN_MOTION_DDOT":0},{"OBJECT_NAME":"ONEWEB-0430","OBJECT_ID":"2021-132AJ","EPOCH":"2026-02-10T20:11:02.529600","MEAN_MOTION":13.18687471,"ECCENTRICITY":0.00019018,"INCLINATION":87.9223,"RA_OF_ASC_NODE":0.5427,"ARG_OF_PERICENTER":87.8734,"MEAN_ANOMALY":272.2616,"EPHEMERIS_TYPE":0,"CLASSIFICATION_TYPE":"U","NORAD_CAT_ID":50501,"ELEMENT_SET_NO":999,"REV_AT_EPOCH":20497,"BSTAR":7.4805556e-5,"MEAN_MOTION_DOT":4.2e-7,"MEAN_MOTION_DDOT":0},{"OBJECT_NAME":"ONEWEB-0432","OBJECT_ID":"2021-132AK","EPOCH":"2026-02-10T08:12:44.735616","MEAN_MOTION":13.18642187,"ECCENTRICITY":0.00025813,"INCLINATION":87.9222,"RA_OF_ASC_NODE":0.6104,"ARG_OF_PERICENTER":85.6417,"MEAN_ANOMALY":274.501,"EPHEMERIS_TYPE":0,"CLASSIFICATION_TYPE":"U","NORAD_CAT_ID":50502,"ELEMENT_SET_NO":999,"REV_AT_EPOCH":20486,"BSTAR":0.00015669916,"MEAN_MOTION_DOT":7.5e-7,"MEAN_MOTION_DDOT":0},{"OBJECT_NAME":"ONEWEB-0440","OBJECT_ID":"2021-132AL","EPOCH":"2026-02-10T22:28:47.269344","MEAN_MOTION":13.18687929,"ECCENTRICITY":0.00014852,"INCLINATION":87.9225,"RA_OF_ASC_NODE":0.5131,"ARG_OF_PERICENTER":76.2663,"MEAN_ANOMALY":283.8634,"EPHEMERIS_TYPE":0,"CLASSIFICATION_TYPE":"U","NORAD_CAT_ID":50503,"ELEMENT_SET_NO":999,"REV_AT_EPOCH":20493,"BSTAR":9.1873185e-5,"MEAN_MOTION_DOT":4.9e-7,"MEAN_MOTION_DDOT":0},{"OBJECT_NAME":"ONEWEB-0450","OBJECT_ID":"2021-132AM","EPOCH":"2026-02-10T22:19:28.630272","MEAN_MOTION":13.18685088,"ECCENTRICITY":0.00016905,"INCLINATION":87.9218,"RA_OF_ASC_NODE":0.5327,"ARG_OF_PERICENTER":92.3724,"MEAN_ANOMALY":267.7602,"EPHEMERIS_TYPE":0,"CLASSIFICATION_TYPE":"U","NORAD_CAT_ID":50504,"ELEMENT_SET_NO":999,"REV_AT_EPOCH":20496,"BSTAR":-0.00084799772,"MEAN_MOTION_DOT":-3.21e-6,"MEAN_MOTION_DDOT":0},{"OBJECT_NAME":"ONEWEB-0410","OBJECT_ID":"2022-012A","EPOCH":"2026-02-10T22:27:01.643616","MEAN_MOTION":13.17650791,"ECCENTRICITY":0.00029547,"INCLINATION":87.9112,"RA_OF_ASC_NODE":30.9253,"ARG_OF_PERICENTER":65.8343,"MEAN_ANOMALY":294.3097,"EPHEMERIS_TYPE":0,"CLASSIFICATION_TYPE":"U","NORAD_CAT_ID":51622,"ELEMENT_SET_NO":999,"REV_AT_EPOCH":19707,"BSTAR":9.651522e-6,"MEAN_MOTION_DOT":1.7e-7,"MEAN_MOTION_DDOT":0},{"OBJECT_NAME":"ONEWEB-0411","OBJECT_ID":"2022-012B","EPOCH":"2026-02-11T00:33:18.489888","MEAN_MOTION":13.10376503,"ECCENTRICITY":0.00021107,"INCLINATION":87.8749,"RA_OF_ASC_NODE":61.4004,"ARG_OF_PERICENTER":107.6642,"MEAN_ANOMALY":252.4716,"EPHEMERIS_TYPE":0,"CLASSIFICATION_TYPE":"U","NORAD_CAT_ID":51623,"ELEMENT_SET_NO":999,"REV_AT_EPOCH":19276,"BSTAR":0.00069684747,"MEAN_MOTION_DOT":2.56e-6,"MEAN_MOTION_DDOT":0},{"OBJECT_NAME":"ONEWEB-0415","OBJECT_ID":"2022-012C","EPOCH":"2026-02-11T00:28:30.995616","MEAN_MOTION":13.10376446,"ECCENTRICITY":0.00020241,"INCLINATION":87.8754,"RA_OF_ASC_NODE":61.4041,"ARG_OF_PERICENTER":100.4302,"MEAN_ANOMALY":259.7054,"EPHEMERIS_TYPE":0,"CLASSIFICATION_TYPE":"U","NORAD_CAT_ID":51624,"ELEMENT_SET_NO":999,"REV_AT_EPOCH":19276,"BSTAR":0.00027072686,"MEAN_MOTION_DOT":1.07e-6,"MEAN_MOTION_DDOT":0},{"OBJECT_NAME":"ONEWEB-0416","OBJECT_ID":"2022-012D","EPOCH":"2026-02-11T00:45:15.829344","MEAN_MOTION":13.10375161,"ECCENTRICITY":0.00023075,"INCLINATION":87.8754,"RA_OF_ASC_NODE":61.4219,"ARG_OF_PERICENTER":96.5814,"MEAN_ANOMALY":263.5576,"EPHEMERIS_TYPE":0,"CLASSIFICATION_TYPE":"U","NORAD_CAT_ID":51625,"ELEMENT_SET_NO":999,"REV_AT_EPOCH":19280,"BSTAR":0.0019022871,"MEAN_MOTION_DOT":6.77e-6,"MEAN_MOTION_DDOT":0},{"OBJECT_NAME":"ONEWEB-0422","OBJECT_ID":"2022-012E","EPOCH":"2026-02-10T22:41:34.808064","MEAN_MOTION":13.17651198,"ECCENTRICITY":0.00012093,"INCLINATION":87.9114,"RA_OF_ASC_NODE":30.9259,"ARG_OF_PERICENTER":96.4074,"MEAN_ANOMALY":263.7195,"EPHEMERIS_TYPE":0,"CLASSIFICATION_TYPE":"U","NORAD_CAT_ID":51626,"ELEMENT_SET_NO":999,"REV_AT_EPOCH":19718,"BSTAR":4.263424e-6,"MEAN_MOTION_DOT":1.5e-7,"MEAN_MOTION_DDOT":0},{"OBJECT_NAME":"ONEWEB-0423","OBJECT_ID":"2022-012F","EPOCH":"2026-02-10T22:31:52.426272","MEAN_MOTION":13.17648638,"ECCENTRICITY":0.00017819,"INCLINATION":87.9113,"RA_OF_ASC_NODE":30.937,"ARG_OF_PERICENTER":84.9271,"MEAN_ANOMALY":275.2063,"EPHEMERIS_TYPE":0,"CLASSIFICATION_TYPE":"U","NORAD_CAT_ID":51627,"ELEMENT_SET_NO":999,"REV_AT_EPOCH":19707,"BSTAR":7.2705385e-5,"MEAN_MOTION_DOT":4.1e-7,"MEAN_MOTION_DDOT":0},{"OBJECT_NAME":"ONEWEB-0425","OBJECT_ID":"2022-012G","EPOCH":"2026-02-11T00:59:36.766464","MEAN_MOTION":13.10371952,"ECCENTRICITY":0.00020175,"INCLINATION":87.8759,"RA_OF_ASC_NODE":61.3955,"ARG_OF_PERICENTER":82.7479,"MEAN_ANOMALY":277.3877,"EPHEMERIS_TYPE":0,"CLASSIFICATION_TYPE":"U","NORAD_CAT_ID":51628,"ELEMENT_SET_NO":999,"REV_AT_EPOCH":19280,"BSTAR":0.0020100961,"MEAN_MOTION_DOT":7.14e-6,"MEAN_MOTION_DDOT":0},{"OBJECT_NAME":"ONEWEB-0428","OBJECT_ID":"2022-012H","EPOCH":"2026-02-10T13:31:11.073504","MEAN_MOTION":13.10375719,"ECCENTRICITY":0.00018352,"INCLINATION":87.8756,"RA_OF_ASC_NODE":61.5065,"ARG_OF_PERICENTER":92.6273,"MEAN_ANOMALY":267.5064,"EPHEMERIS_TYPE":0,"CLASSIFICATION_TYPE":"U","NORAD_CAT_ID":51629,"ELEMENT_SET_NO":999,"REV_AT_EPOCH":19270,"BSTAR":0.00066756991,"MEAN_MOTION_DOT":2.46e-6,"MEAN_MOTION_DDOT":0},{"OBJECT_NAME":"ONEWEB-0431","OBJECT_ID":"2022-012J","EPOCH":"2026-02-10T14:37:54.024384","MEAN_MOTION":13.10369283,"ECCENTRICITY":0.00019606,"INCLINATION":87.8755,"RA_OF_ASC_NODE":61.481,"ARG_OF_PERICENTER":112.7577,"MEAN_ANOMALY":247.3758,"EPHEMERIS_TYPE":0,"CLASSIFICATION_TYPE":"U","NORAD_CAT_ID":51630,"ELEMENT_SET_NO":999,"REV_AT_EPOCH":19276,"BSTAR":-0.0013561997,"MEAN_MOTION_DOT":-4.61e-6,"MEAN_MOTION_DDOT":0},{"OBJECT_NAME":"ONEWEB-0434","OBJECT_ID":"2022-012K","EPOCH":"2026-02-10T12:14:54.427488","MEAN_MOTION":13.10369502,"ECCENTRICITY":0.00021261,"INCLINATION":87.8746,"RA_OF_ASC_NODE":61.5319,"ARG_OF_PERICENTER":76.272,"MEAN_ANOMALY":283.8644,"EPHEMERIS_TYPE":0,"CLASSIFICATION_TYPE":"U","NORAD_CAT_ID":51631,"ELEMENT_SET_NO":999,"REV_AT_EPOCH":19273,"BSTAR":0.0013833735,"MEAN_MOTION_DOT":4.96e-6,"MEAN_MOTION_DDOT":0},{"OBJECT_NAME":"ONEWEB-0435","OBJECT_ID":"2022-012L","EPOCH":"2026-02-10T23:26:22.540992","MEAN_MOTION":13.10369179,"ECCENTRICITY":0.00014761,"INCLINATION":87.8747,"RA_OF_ASC_NODE":61.4284,"ARG_OF_PERICENTER":97.0904,"MEAN_ANOMALY":263.0392,"EPHEMERIS_TYPE":0,"CLASSIFICATION_TYPE":"U","NORAD_CAT_ID":51632,"ELEMENT_SET_NO":999,"REV_AT_EPOCH":19278,"BSTAR":0.00039759258,"MEAN_MOTION_DOT":1.51e-6,"MEAN_MOTION_DDOT":0},{"OBJECT_NAME":"ONEWEB-0436","OBJECT_ID":"2022-012M","EPOCH":"2026-02-10T22:19:43.478976","MEAN_MOTION":13.17648595,"ECCENTRICITY":0.00017139,"INCLINATION":87.9112,"RA_OF_ASC_NODE":30.9169,"ARG_OF_PERICENTER":92.3973,"MEAN_ANOMALY":267.7355,"EPHEMERIS_TYPE":0,"CLASSIFICATION_TYPE":"U","NORAD_CAT_ID":51633,"ELEMENT_SET_NO":999,"REV_AT_EPOCH":19705,"BSTAR":6.2167245e-5,"MEAN_MOTION_DOT":3.7e-7,"MEAN_MOTION_DDOT":0}]
